[{"OBJECT_NAME":"ONEWEB-0282","OBJECT_ID":"2021-060AK","EPOCH":"2026-02-04T02:26:31.194816","MEAN_MOTION":13.16593924,"ECCENTRICITY":0.00014349,"INCLINATION":87.9007,"RA_OF_ASC_NODE":255.274,"ARG_OF_PERICENTER":91.3048,"MEAN_ANOMALY":268.8248,"EPHEMERIS_TYPE":0,"CLASSIFICATION_TYPE":"U","NORAD_CAT_ID":49000,"ELEMENT_SET_NO":999,"REV_AT_EPOCH":22209,"BSTAR":0.00017202307,"MEAN_MOTION_DOT":7.9e-7,"MEAN_MOTION_DDOT":0},{"OBJECT_NAME":"ONEWEB-0283","OBJECT_ID":"2021-060AL","EPOCH":"2026-02-04T03:59:59.390304","MEAN_MOTION":13.16594525,"ECCENTRICITY":0.00013578,"INCLINATION":87.9016,"RA_OF_ASC_NODE":255.26,"ARG_OF_PERICENTER":86.6605,"MEAN_ANOMALY":273.4682,"EPHEMERIS_TYPE":0,"CLASSIFICATION_TYPE":"U","NORAD_CAT_ID":49001,"ELEMENT_SET_NO":999,"REV_AT_EPOCH":22211,"BSTAR":-8.634903e-6,"MEAN_MOTION_DOT":1.0e-7,"MEAN_MOTION_DDOT":0},{"OBJECT_NAME":"ONEWEB-0284","OBJECT_ID":"2021-060AM","EPOCH":"2026-02-04T03:50:52.888704","MEAN_MOTION":13.16594495,"ECCENTRICITY":0.00016927,"INCLINATION":87.9012,"RA_OF_ASC_NODE":255.2532,"ARG_OF_PERICENTER":98.8009,"MEAN_ANOMALY":261.3314,"EPHEMERIS_TYPE":0,"CLASSIFICATION_TYPE":"U","NORAD_CAT_ID":49002,"ELEMENT_SET_NO":999,"REV_AT_EPOCH":22209,"BSTAR":6.4202605e-5,"MEAN_MOTION_DOT":3.7e-7,"MEAN_MOTION_DDOT":0},{"OBJECT_NAME":"ONEWEB-0285","OBJECT_ID":"2021-075A","EPOCH":"2026-02-04T04:17:36.069216","MEAN_MOTION":13.12442645,"ECCENTRICITY":0.00017894,"INCLINATION":87.8955,"RA_OF_ASC_NODE":17.0606,"ARG_OF_PERICENTER":86.9295,"MEAN_ANOMALY":273.2039,"EPHEMERIS_TYPE":0,"CLASSIFICATION_TYPE":"U","NORAD_CAT_ID":49075,"ELEMENT_SET_NO":999,"REV_AT_EPOCH":21776,"BSTAR":0.00072444473,"MEAN_MOTION_DOT":2.73e-6,"MEAN_MOTION_DDOT":0},{"OBJECT_NAME":"ONEWEB-0286","OBJECT_ID":"2021-075B","EPOCH":"2026-02-04T07:31:20.587008","MEAN_MOTION":13.12440993,"ECCENTRICITY":0.00020117,"INCLINATION":87.8943,"RA_OF_ASC_NODE":17.0636,"ARG_OF_PERICENTER":85.0201,"MEAN_ANOMALY":275.1157,"EPHEMERIS_TYPE":0,"CLASSIFICATION_TYPE":"U","NORAD_CAT_ID":49076,"ELEMENT_SET_NO":999,"REV_AT_EPOCH":21713,"BSTAR":0.0018070067,"MEAN_MOTION_DOT":6.63e-6,"MEAN_MOTION_DDOT":0},{"OBJECT_NAME":"ONEWEB-0287","OBJECT_ID":"2021-075C","EPOCH":"2026-02-04T01:12:48.934368","MEAN_MOTION":13.17649851,"ECCENTRICITY":0.00022666,"INCLINATION":87.91,"RA_OF_ASC_NODE":32.3181,"ARG_OF_PERICENTER":85.1363,"MEAN_ANOMALY":275.0027,"EPHEMERIS_TYPE":0,"CLASSIFICATION_TYPE":"U","NORAD_CAT_ID":49077,"ELEMENT_SET_NO":999,"REV_AT_EPOCH":21609,"BSTAR":-5.1155825e-5,"MEAN_MOTION_DOT":-7.0e-8,"MEAN_MOTION_DDOT":0},{"OBJECT_NAME":"ONEWEB-0288","OBJECT_ID":"2021-075D","EPOCH":"2026-02-03T10:49:47.644896","MEAN_MOTION":13.12443366,"ECCENTRICITY":0.00019156,"INCLINATION":87.895,"RA_OF_ASC_NODE":17.1997,"ARG_OF_PERICENTER":87.8777,"MEAN_ANOMALY":272.2571,"EPHEMERIS_TYPE":0,"CLASSIFICATION_TYPE":"U","NORAD_CAT_ID":49078,"ELEMENT_SET_NO":999,"REV_AT_EPOCH":21764,"BSTAR":-0.00034251867,"MEAN_MOTION_DOT":-1.11e-6,"MEAN_MOTION_DDOT":0},{"OBJECT_NAME":"ONEWEB-0289","OBJECT_ID":"2021-075E","EPOCH":"2026-02-04T05:47:11.034816","MEAN_MOTION":13.17649176,"ECCENTRICITY":0.00018791,"INCLINATION":87.9097,"RA_OF_ASC_NODE":32.2915,"ARG_OF_PERICENTER":101.4496,"MEAN_ANOMALY":258.6846,"EPHEMERIS_TYPE":0,"CLASSIFICATION_TYPE":"U","NORAD_CAT_ID":49079,"ELEMENT_SET_NO":999,"REV_AT_EPOCH":21669,"BSTAR":-4.2772257e-5,"MEAN_MOTION_DOT":-4.0e-8,"MEAN_MOTION_DDOT":0},{"OBJECT_NAME":"ONEWEB-0290","OBJECT_ID":"2021-075F","EPOCH":"2026-02-03T12:44:20.755392","MEAN_MOTION":13.17651541,"ECCENTRICITY":0.00016714,"INCLINATION":87.9104,"RA_OF_ASC_NODE":32.3994,"ARG_OF_PERICENTER":107.5524,"MEAN_ANOMALY":252.579,"EPHEMERIS_TYPE":0,"CLASSIFICATION_TYPE":"U","NORAD_CAT_ID":49080,"ELEMENT_SET_NO":999,"REV_AT_EPOCH":21601,"BSTAR":4.2297357e-5,"MEAN_MOTION_DOT":2.9e-7,"MEAN_MOTION_DDOT":0},{"OBJECT_NAME":"ONEWEB-0291","OBJECT_ID":"2021-075G","EPOCH":"2026-02-04T06:35:57.988608","MEAN_MOTION":13.17647979,"ECCENTRICITY":0.00022356,"INCLINATION":87.9107,"RA_OF_ASC_NODE":32.2594,"ARG_OF_PERICENTER":92.9033,"MEAN_ANOMALY":267.2354,"EPHEMERIS_TYPE":0,"CLASSIFICATION_TYPE":"U","NORAD_CAT_ID":49081,"ELEMENT_SET_NO":999,"REV_AT_EPOCH":21610,"BSTAR":9.228186e-5,"MEAN_MOTION_DOT":4.9e-7,"MEAN_MOTION_DDOT":0},{"OBJECT_NAME":"ONEWEB-0293","OBJECT_ID":"2021-075H","EPOCH":"2026-02-03T16:37:37.567488","MEAN_MOTION":13.17647831,"ECCENTRICITY":0.00018619,"INCLINATION":87.9095,"RA_OF_ASC_NODE":32.3899,"ARG_OF_PERICENTER":92.7956,"MEAN_ANOMALY":267.3389,"EPHEMERIS_TYPE":0,"CLASSIFICATION_TYPE":"U","NORAD_CAT_ID":49082,"ELEMENT_SET_NO":999,"REV_AT_EPOCH":21605,"BSTAR":0.00018952868,"MEAN_MOTION_DOT":8.6e-7,"MEAN_MOTION_DDOT":0},{"OBJECT_NAME":"ONEWEB-0294","OBJECT_ID":"2021-075J","EPOCH":"2026-02-03T21:58:13.921824","MEAN_MOTION":13.12443281,"ECCENTRICITY":0.00018116,"INCLINATION":87.8948,"RA_OF_ASC_NODE":17.1102,"ARG_OF_PERICENTER":96.9131,"MEAN_ANOMALY":263.2203,"EPHEMERIS_TYPE":0,"CLASSIFICATION_TYPE":"U","NORAD_CAT_ID":49083,"ELEMENT_SET_NO":999,"REV_AT_EPOCH":21709,"BSTAR":0.00015200916,"MEAN_MOTION_DOT":6.7e-7,"MEAN_MOTION_DDOT":0},{"OBJECT_NAME":"ONEWEB-0295","OBJECT_ID":"2021-075K","EPOCH":"2026-02-04T05:21:52.416576","MEAN_MOTION":13.17648439,"ECCENTRICITY":0.00021784,"INCLINATION":87.9095,"RA_OF_ASC_NODE":32.2886,"ARG_OF_PERICENTER":89.4028,"MEAN_ANOMALY":270.7353,"EPHEMERIS_TYPE":0,"CLASSIFICATION_TYPE":"U","NORAD_CAT_ID":49084,"ELEMENT_SET_NO":999,"REV_AT_EPOCH":21608,"BSTAR":-0.00012902336,"MEAN_MOTION_DOT":-3.7e-7,"MEAN_MOTION_DDOT":0},{"OBJECT_NAME":"ONEWEB-0296","OBJECT_ID":"2021-075L","EPOCH":"2026-02-04T04:48:05.073408","MEAN_MOTION":13.12442373,"ECCENTRICITY":0.00022355,"INCLINATION":87.8952,"RA_OF_ASC_NODE":17.0568,"ARG_OF_PERICENTER":88.9081,"MEAN_ANOMALY":271.2303,"EPHEMERIS_TYPE":0,"CLASSIFICATION_TYPE":"U","NORAD_CAT_ID":49085,"ELEMENT_SET_NO":999,"REV_AT_EPOCH":21713,"BSTAR":-0.00085349771,"MEAN_MOTION_DOT":-2.94e-6,"MEAN_MOTION_DDOT":0},{"OBJECT_NAME":"ONEWEB-0297","OBJECT_ID":"2021-075M","EPOCH":"2026-02-04T07:21:47.240928","MEAN_MOTION":13.12443099,"ECCENTRICITY":0.00019176,"INCLINATION":87.8939,"RA_OF_ASC_NODE":17.0634,"ARG_OF_PERICENTER":85.0357,"MEAN_ANOMALY":275.099,"EPHEMERIS_TYPE":0,"CLASSIFICATION_TYPE":"U","NORAD_CAT_ID":49086,"ELEMENT_SET_NO":999,"REV_AT_EPOCH":21775,"BSTAR":0.00071466559,"MEAN_MOTION_DOT":2.7e-6,"MEAN_MOTION_DDOT":0},{"OBJECT_NAME":"ONEWEB-0298","OBJECT_ID":"2021-075N","EPOCH":"2026-02-03T16:42:42.478272","MEAN_MOTION":13.1764777,"ECCENTRICITY":0.00018962,"INCLINATION":87.9091,"RA_OF_ASC_NODE":32.3904,"ARG_OF_PERICENTER":83.4394,"MEAN_ANOMALY":276.6953,"EPHEMERIS_TYPE":0,"CLASSIFICATION_TYPE":"U","NORAD_CAT_ID":49087,"ELEMENT_SET_NO":999,"REV_AT_EPOCH":21604,"BSTAR":-1.01696e-6,"MEAN_MOTION_DOT":1.2e-7,"MEAN_MOTION_DDOT":0},{"OBJECT_NAME":"ONEWEB-0299","OBJECT_ID":"2021-075P","EPOCH":"2026-02-04T00:02:18.752352","MEAN_MOTION":13.1764811,"ECCENTRICITY":0.00020169,"INCLINATION":87.9103,"RA_OF_ASC_NODE":32.2965,"ARG_OF_PERICENTER":86.3943,"MEAN_ANOMALY":273.7419,"EPHEMERIS_TYPE":0,"CLASSIFICATION_TYPE":"U","NORAD_CAT_ID":49088,"ELEMENT_SET_NO":999,"REV_AT_EPOCH":21606,"BSTAR":3.846663e-5,"MEAN_MOTION_DOT":2.8e-7,"MEAN_MOTION_DDOT":0}]
