ONEWEB-0282             
1 49000U 21060AK  26035.10174994  .00000079  00000+0  17202-3 0  9993
2 49000  87.9007 255.2740 0001434  91.3048 268.8248 13.16593924222094
ONEWEB-0283             
1 49001U 21060AL  26035.16665961  .00000010  00000+0 -86349-5 0  9995
2 49001  87.9016 255.2600 0001357  86.6605 273.4682 13.16594525222115
ONEWEB-0284             
1 49002U 21060AM  26035.16033436  .00000037  00000+0  64203-4 0  9994
2 49002  87.9012 255.2532 0001692  98.8009 261.3314 13.16594495222092
ONEWEB-0285             
1 49075U 21075A   26035.17888969  .00000273  00000+0  72444-3 0  9997
2 49075  87.8955  17.0606 0001789  86.9295 273.2039 13.12442645217764
ONEWEB-0286             
1 49076U 21075B   26035.31343272  .00000663  00000+0  18070-2 0  9994
2 49076  87.8943  17.0636 0002011  85.0201 275.1157 13.12440993217138
ONEWEB-0287             
1 49077U 21075C   26035.05056637 -.00000007  00000+0 -51156-4 0  9990
2 49077  87.9100  32.3181 0002266  85.1363 275.0027 13.17649851216090
ONEWEB-0288             
1 49078U 21075D   26034.45124589 -.00000111  00000+0 -34252-3 0  9999
2 49078  87.8950  17.1997 0001915  87.8777 272.2571 13.12443366217640
ONEWEB-0289             
1 49079U 21075E   26035.24109994 -.00000004  00000+0 -42772-4 0  9999
2 49079  87.9097  32.2915 0001879 101.4496 258.6846 13.17649176216691
ONEWEB-0290             
1 49080U 21075F   26034.53079578  .00000029  00000+0  42297-4 0  9993
2 49080  87.9104  32.3994 0001671 107.5524 252.5790 13.17651541216015
ONEWEB-0291             
1 49081U 21075G   26035.27497672  .00000049  00000+0  92282-4 0  9996
2 49081  87.9107  32.2594 0002235  92.9033 267.2354 13.17647979216102
ONEWEB-0293             
1 49082U 21075H   26034.69279592  .00000086  00000+0  18953-3 0  9994
2 49082  87.9095  32.3899 0001861  92.7956 267.3389 13.17647831216054
ONEWEB-0294             
1 49083U 21075J   26034.91543891  .00000067  00000+0  15201-3 0  9998
2 49083  87.8948  17.1102 0001811  96.9131 263.2203 13.12443281217098
ONEWEB-0295             
1 49084U 21075K   26035.22352334 -.00000037  00000+0 -12902-3 0  9998
2 49084  87.9095  32.2886 0002178  89.4028 270.7353 13.17648439216083
ONEWEB-0296             
1 49085U 21075L   26035.20005872 -.00000294  00000+0 -85350-3 0  9991
2 49085  87.8952  17.0568 0002235  88.9081 271.2303 13.12442373217132
ONEWEB-0297             
1 49086U 21075M   26035.30679677  .00000270  00000+0  71467-3 0  9999
2 49086  87.8939  17.0634 0001917  85.0357 275.0990 13.12443099217750
ONEWEB-0298             
1 49087U 21075N   26034.69632498  .00000012  00000+0 -10170-5 0  9992
2 49087  87.9091  32.3904 0001896  83.4394 276.6953 13.17647770216044
ONEWEB-0299             
1 49088U 21075P   26035.00160593  .00000028  00000+0  38467-4 0  9995
2 49088  87.9103  32.2965 0002016  86.3943 273.7419 13.17648110216068
